$$SOE
2460721.500000000, A.D. 2025-Feb-15 00:00:00.0000, -6.971823735842863E+08, 3.873057976863511E+08, -2.451247926007091E+07,
2460728.500000000, A.D. 2025-Feb-22 00:00:00.0000, -7.010928004242735E+08, 3.806977512191632E+08, -2.436599097695696E+07,
2460735.500000000, A.D. 2025-Mar-01 00:00:00.0000, -7.049362436246115E+08, 3.740532943027441E+08, -2.421717473549545E+07,
2460742.500000000, A.D. 2025-Mar-08 00:00:00.0000, -7.087123935800468E+08, 3.673730942088096E+08, -2.406604713861781E+07,
2460749.500000000, A.D. 2025-Mar-15 00:00:00.0000, -7.124209460019801E+08, 3.606578218293303E+08, -2.391262495595674E+07,
2460756.500000000, A.D. 2025-Mar-22 00:00:00.0000, -7.160616041460195E+08, 3.539081520451971E+08, -2.375692487813778E+07,
2460763.500000000, A.D. 2025-Mar-29 00:00:00.0000, -7.196340796696750E+08, 3.471247618404428E+08, -2.359896357983465E+07,
2460770.500000000, A.D. 2025-Apr-05 00:00:00.0000, -7.231380917948879E+08, 3.403083293002765E+08, -2.343875786520374E+07,
2460777.500000000, A.D. 2025-Apr-12 00:00:00.0000, -7.265733667016184E+08, 3.334595335970454E+08, -2.327632471087089E+07,
2460784.500000000, A.D. 2025-Apr-19 00:00:00.0000, -7.299396373399596E+08, 3.265790550832130E+08, -2.311168126165031E+07,
2460791.500000000, A.D. 2025-Apr-26 00:00:00.0000, -7.332366433892064E+08, 3.196675752888450E+08, -2.294484482078350E+07,
2460798.500000000, A.D. 2025-May-03 00:00:00.0000, -7.364641312501885E+08, 3.127257768432582E+08, -2.277583284378116E+07,
2460805.500000000, A.D. 2025-May-10 00:00:00.0000, -7.396218540422194E+08, 3.057543433299097E+08, -2.260466293795745E+07,
2460812.500000000, A.D. 2025-May-17 00:00:00.0000, -7.427095715678674E+08, 2.987539590338255E+08, -2.243135287450701E+07,
2460819.500000000, A.D. 2025-May-24 00:00:00.0000, -7.457270500715592E+08, 2.917253085273761E+08, -2.225592063360858E+07,
2460826.500000000, A.D. 2025-May-31 00:00:00.0000, -7.486740613741587E+08, 2.846690764055830E+08, -2.207838449550441E+07,
2460833.500000000, A.D. 2025-Jun-07 00:00:00.0000, -7.515503817844199E+08, 2.775859483758874E+08, -2.189876304233566E+07,
2460840.500000000, A.D. 2025-Jun-14 00:00:00.0000, -7.543557931519955E+08, 2.704766130356759E+08, -2.171707490836549E+07,
2460847.500000000, A.D. 2025-Jun-21 00:00:00.0000, -7.570900848453494E+08, 2.633417610665248E+08, -2.153333865752909E+07,
2460854.500000000, A.D. 2025-Jun-28 00:00:00.0000, -7.597530535261611E+08, 2.561820836100716E+08, -2.134757293095349E+07,
2460861.500000000, A.D. 2025-Jul-05 00:00:00.0000, -7.623445022367803E+08, 2.489982719819617E+08, -2.115979654903249E+07,
2460868.500000000, A.D. 2025-Jul-12 00:00:00.0000, -7.648642399918464E+08, 2.417910179185900E+08, -2.097002852458866E+07,
2460875.500000000, A.D. 2025-Jul-19 00:00:00.0000, -7.673120816846178E+08, 2.345610137817508E+08, -2.077828805145320E+07,
2460882.500000000, A.D. 2025-Jul-26 00:00:00.0000, -7.696878480980966E+08, 2.273089526648122E+08, -2.058459449225656E+07,
2460889.500000000, A.D. 2025-Aug-02 00:00:00.0000, -7.719913659555548E+08, 2.200355284222387E+08, -2.038896736954600E+07,
2460896.500000000, A.D. 2025-Aug-09 00:00:00.0000, -7.742224679870332E+08, 2.127414356080427E+08, -2.019142636342825E+07,
2460903.500000000, A.D. 2025-Aug-16 00:00:00.0000, -7.763809929348677E+08, 2.054273692601978E+08, -1.999199132778551E+07,
2460910.500000000, A.D. 2025-Aug-23 00:00:00.0000, -7.784667852056105E+08, 1.980940245477613E+08, -1.979068235034508E+07,
2460917.500000000, A.D. 2025-Aug-30 00:00:00.0000, -7.804796938393863E+08, 1.907420969949481E+08, -1.958751982818404E+07,
2460924.500000000, A.D. 2025-Sep-06 00:00:00.0000, -7.824195722148545E+08, 1.833722842825305E+08, -1.938252434660885E+07,
2460931.500000000, A.D. 2025-Sep-13 00:00:00.0000, -7.842862801607618E+08, 1.759852871438569E+08, -1.917571641084696E+07,
2460938.500000000, A.D. 2025-Sep-20 00:00:00.0000, -7.860796852009674E+08, 1.685818077113835E+08, -1.896711646491816E+07,
2460945.500000000, A.D. 2025-Sep-27 00:00:00.0000, -7.877996618741884E+08, 1.611625484255093E+08, -1.875674504024309E+07,
2460952.500000000, A.D. 2025-Oct-04 00:00:00.0000, -7.894460911450919E+08, 1.537282120450025E+08, -1.854462280477266E+07,
2460959.500000000, A.D. 2025-Oct-11 00:00:00.0000, -7.910188602804959E+08, 1.462795018162014E+08, -1.833077055533893E+07,
2460966.500000000, A.D. 2025-Oct-18 00:00:00.0000, -7.925178629070407E+08, 1.388171215269193E+08, -1.811520920163780E+07,
2460973.500000000, A.D. 2025-Oct-25 00:00:00.0000, -7.939429991107248E+08, 1.313417754564573E+08, -1.789795975376597E+07,
2460980.500000000, A.D. 2025-Nov-01 00:00:00.0000, -7.952941755387475E+08, 1.238541682376084E+08, -1.767904331574869E+07,
2460987.500000000, A.D. 2025-Nov-08 00:00:00.0000, -7.965713054690276E+08, 1.163550045996223E+08, -1.745848109093613E+07,
2460994.500000000, A.D. 2025-Nov-15 00:00:00.0000, -7.977743086995318E+08, 1.088449889339375E+08, -1.723629441780370E+07,
2461001.500000000, A.D. 2025-Nov-22 00:00:00.0000, -7.989031108547807E+08, 1.013248249031331E+08, -1.701250485531743E+07,
2461008.500000000, A.D. 2025-Nov-29 00:00:00.0000, -7.999576422628556E+08, 9.379521622843018E+07, -1.678713421127959E+07,
2461015.500000000, A.D. 2025-Dec-06 00:00:00.0000, -8.009378386805699E+08, 8.625686852003886E+07, -1.656020431610399E+07,
2461022.500000000, A.D. 2025-Dec-13 00:00:00.0000, -8.018436434335176E+08, 7.871048878044856E+07, -1.633173685742472E+07,
2461029.500000000, A.D. 2025-Dec-20 00:00:00.0000, -8.026750074778941E+08, 7.115678360440086E+07, -1.610175351243075E+07,
2461036.500000000, A.D. 2025-Dec-27 00:00:00.0000, -8.034318884576941E+08, 6.359645866732138E+07, -1.587027606771215E+07,
2461043.500000000, A.D. 2026-Jan-03 00:00:00.0000, -8.041142502164533E+08, 5.603021888711035E+07, -1.563732644310268E+07,
2461050.500000000, A.D. 2026-Jan-10 00:00:00.0000, -8.047220626538576E+08, 4.845876858105096E+07, -1.540292668504673E+07,
2461057.500000000, A.D. 2026-Jan-17 00:00:00.0000, -8.052553016946943E+08, 4.088281152711183E+07, -1.516709895824127E+07,
2461064.500000000, A.D. 2026-Jan-24 00:00:00.0000, -8.057139492921962E+08, 3.330305095322480E+07, -1.492986554074977E+07,
2461071.500000000, A.D. 2026-Jan-31 00:00:00.0000, -8.060979934422925E+08, 2.572018944806449E+07, -1.469124882523593E+07,
2461078.500000000, A.D. 2026-Feb-07 00:00:00.0000, -8.064074281472265E+08, 1.813492873691486E+07, -1.445127133652740E+07,
2461085.500000000, A.D. 2026-Feb-14 00:00:00.0000, -8.066422530754458E+08, 1.054796930821794E+07, -1.420995578985829E+07,
2461092.500000000, A.D. 2026-Feb-21 00:00:00.0000, -8.068024725301343E+08, 2.960010468628895E+06, -1.396732517806824E+07,
2461099.500000000, A.D. 2026-Feb-28 00:00:00.0000, -8.068880948111471E+08, -4.628248019376254E+06, -1.372340269389911E+07,
2461106.500000000, A.D. 2026-Mar-07 00:00:00.0000, -8.068991340289687E+08, -1.221610466705002E+07, -1.347821145787363E+07,
2461113.500000000, A.D. 2026-Mar-14 00:00:00.0000, -8.068356115951595E+08, -1.980285768859338E+07, -1.323177449690645E+07,
2461120.500000000, A.D. 2026-Mar-21 00:00:00.0000, -8.066975556062776E+08, -2.738780623185486E+07, -1.298411490021569E+07,
2461127.500000000, A.D. 2026-Mar-28 00:00:00.0000, -8.064850001304293E+08, -3.497025038187277E+07, -1.273525588402888E+07,
2461134.500000000, A.D. 2026-Apr-04 00:00:00.0000, -8.061979850001538E+08, -4.254949090304721E+07, -1.248522078847975E+07,
2461141.500000000, A.D. 2026-Apr-11 00:00:00.0000, -8.058365558377928E+08, -5.012482907998230E+07, -1.223403306106345E+07,
2461148.500000000, A.D. 2026-Apr-18 00:00:00.0000, -8.054007641540323E+08, -5.769556666373356E+07, -1.198171624161242E+07,
2461155.500000000, A.D. 2026-Apr-25 00:00:00.0000, -8.048906674736060E+08, -6.526100590878533E+07, -1.172829395159242E+07,
2461162.500000000, A.D. 2026-May-02 00:00:00.0000, -8.043063294571894E+08, -7.282044973040046E+07, -1.147378989276405E+07,
2461169.500000000, A.D. 2026-May-09 00:00:00.0000, -8.036478198945665E+08, -8.037320204856470E+07, -1.121822787188536E+07,
2461176.500000000, A.D. 2026-May-16 00:00:00.0000, -8.029152141907963E+08, -8.791856818014824E+07, -1.096163187468828E+07,
2461183.500000000, A.D. 2026-May-23 00:00:00.0000, -8.021085922932496E+08, -9.545585425684719E+07, -1.070402611025651E+07,
2461190.500000000, A.D. 2026-May-30 00:00:00.0000, -8.012280391377620E+08, -1.029843653493323E+08, -1.044543480905611E+07,
2461197.500000000, A.D. 2026-Jun-06 00:00:00.0000, -8.002736469312606E+08, -1.105034055711681E+08, -1.018588201312723E+07,
2461204.500000000, A.D. 2026-Jun-13 00:00:00.0000, -7.992455156049585E+08, -1.180122799633643E+08, -9.925391678542159E+06,
2461211.500000000, A.D. 2026-Jun-20 00:00:00.0000, -7.981437519388829E+08, -1.255102952332262E+08, -9.663987805212878E+06,
2461218.500000000, A.D. 2026-Jun-27 00:00:00.0000, -7.969684690557948E+08, -1.329967596873713E+08, -9.401694466283180E+06,
2461225.500000000, A.D. 2026-Jul-04 00:00:00.0000, -7.957197862845086E+08, -1.404709831339064E+08, -9.138535800702564E+06,
2461232.500000000, A.D. 2026-Jul-11 00:00:00.0000, -7.943978291387132E+08, -1.479322768857459E+08, -8.874536003336228E+06,
2461239.500000000, A.D. 2026-Jul-18 00:00:00.0000, -7.930027293186626E+08, -1.553799538393694E+08, -8.609719319284521E+06,
2461246.500000000, A.D. 2026-Jul-25 00:00:00.0000, -7.915346247114253E+08, -1.628133286262892E+08, -8.344110044669591E+06,
2461253.500000000, A.D. 2026-Aug-01 00:00:00.0000, -7.899936593417333E+08, -1.702317178852934E+08, -8.077732542432167E+06,
2461260.500000000, A.D. 2026-Aug-08 00:00:00.0000, -7.883799830586836E+08, -1.776344406912171E+08, -7.810611295926586E+06,
2461267.500000000, A.D. 2026-Aug-15 00:00:00.0000, -7.866937505433424E+08, -1.850208186896806E+08, -7.542771001667999E+06,
2461274.500000000, A.D. 2026-Aug-22 00:00:00.0000, -7.849351203983285E+08, -1.923901747162983E+08, -7.274236531671643E+06,
2461281.500000000, A.D. 2026-Aug-29 00:00:00.0000, -7.831042566085480E+08, -1.997418312729948E+08, -7.005032667651832E+06,
$$EOE